[
    {
        "name": "713 Music Hall",
        "zipcode": "77002",
        "id": "KovZ917APwH",
        "url": "https://www.livenation.com/venue/KovZ917APwH/713-music-hall-events"
    },
    {
        "name": "Ace Cafe",
        "zipcode": "32801",
        "id": "KovZ917A-Sw",
        "url": "https://www.livenation.com/venue/KovZ917A-Sw/ace-cafe-events"
    },
    {
        "name": "Ace of Spades",
        "zipcode": "95811",
        "id": "KovZpZAJ6lvA",
        "url": "https://www.livenation.com/venue/KovZpZAJ6lvA/ace-of-spades-events"
    },
    {
        "name": "Ak-Chin Pavilion",
        "zipcode": "85035",
        "id": "KovZpZAE6vJA",
        "url": "https://www.livenation.com/venue/KovZpZAE6vJA/ak-chin-pavilion-events"
    },
    {
        "name": "Alpine Valley Music Theatre",
        "zipcode": "53149",
        "id": "KovZpZAEAnnA",
        "url": "https://www.livenation.com/venue/KovZpZAEAnnA/alpine-valley-music-theatre-events"
    },
    {
        "name": "Ameris Bank Amphitheatre",
        "zipcode": "30009",
        "id": "KovZpZAFFdlA",
        "url": "https://www.livenation.com/venue/KovZpZAFFdlA/ameris-bank-amphitheatre-events"
    },
    {
        "name": "Arizona Financial Theatre",
        "zipcode": "85701",
        "id": "KovZpZAEk7lA",
        "url": "https://www.livenation.com/venue/KovZpZAEk7lA/arizona-financial-theatre-events"
    },
    {
        "name": "Ascend Amphitheater",
        "zipcode": "37203",
        "id": "KovZpZAEet7A",
        "url": "https://www.livenation.com/venue/KovZpZAEet7A/ascend-amphitheater-events"
    },
    {
        "name": "Aztec Theatre",
        "zipcode": "78205",
        "id": "KovZpZAJEavA",
        "url": "https://www.livenation.com/venue/KovZpZAJEavA/aztec-theatre-events"
    },
    {
        "name": "Bank of New Hampshire Pavilion",
        "zipcode": "03249",
        "id": "KovZpa1qje",
        "url": "https://www.livenation.com/venue/KovZpa1qje/bank-of-new-hampshire-pavilion-events"
    },
    {
        "name": "Bayou Music Center",
        "zipcode": "77002",
        "id": "KovZpZAEkIIA",
        "url": "https://www.livenation.com/venue/KovZpZAEkIIA/bayou-music-center-events"
    },
    {
        "name": "Blossom Music Center",
        "zipcode": "44223",
        "id": "KovZpZAEAtAA",
        "url": "https://www.livenation.com/venue/KovZpZAEAtAA/blossom-music-center-events"
    },
    {
        "name": "Bogart's",
        "zipcode": "45219",
        "id": "KovZpZAEk6IA",
        "url": "https://www.livenation.com/venue/KovZpZAEk6IA/bogart-s-events"
    },
    {
        "name": "Buckhead Theatre",
        "zipcode": "30305",
        "id": "KovZpZAJAllA",
        "url": "https://www.livenation.com/venue/KovZpZAJAllA/buckhead-theatre-events"
    },
    {
        "name": "Budweiser Stage",
        "zipcode": "M8V 3G5",
        "id": "KovZpZAEkkIA",
        "url": "https://www.livenation.com/venue/KovZpZAEkkIA/budweiser-stage-events"
    },
    {
        "name": "Byline Bank Aragon Ballroom",
        "zipcode": "60640",
        "id": "KovZpZAFdJnA",
        "url": "https://www.livenation.com/venue/KovZpZAFdJnA/byline-bank-aragon-ballroom-events"
    },
    {
        "name": "Cadence Bank Amphitheatre at Chastain Park",
        "zipcode": "30342",
        "id": "KovZpZAEkAaA",
        "url": "https://www.livenation.com/venue/KovZpZAEkAaA/cadence-bank-amphitheatre-at-chastain-park-events"
    },
    {
        "name": "Charlotte Metro Credit Union Amphitheatre",
        "zipcode": "28206",
        "id": "KovZpa1qje",
        "url": "https://www.livenation.com/venue/KovZpa1qje/charlotte-metro-credit-union-amphitheatre-events"
    },
    {
        "name": "Coastal Credit Union Music Park at Walnut Creek",
        "zipcode": "27610",
        "id": "KovZpZAEkeaA",
        "url": "https://www.livenation.com/venue/KovZpZAEkeaA/coastal-credit-union-music-park-at-walnut-creek-events"
    },
    {
        "name": "Cobb's Comedy Club",
        "zipcode": "94133",
        "id": "KovZpZAEkFEA",
        "url": "https://www.livenation.com/venue/KovZpZAEkFEA/cobb-s-comedy-club-events"
    },
    {
        "name": "Coca-Cola Roxy",
        "zipcode": "30339",
        "id": "KovZ917ACc7",
        "url": "https://www.livenation.com/venue/KovZ917ACc7/coca-cola-roxy-events"
    },
    {
        "name": "Commodore Ballroom",
        "zipcode": "V6B 2V9",
        "id": "KovZpZAEkklA",
        "url": "https://www.livenation.com/venue/KovZpZAEkklA/commodore-ballroom-events"
    },
    {
        "name": "Concord Pavilion",
        "zipcode": "94521",
        "id": "KovZpZA7kdlA",
        "url": "https://www.livenation.com/venue/KovZpZA7kdlA/concord-pavilion-events"
    },
    {
        "name": "Coney Island Amphitheater",
        "zipcode": "11224",
        "id": "KovZpZAIF7lA",
        "url": "https://www.livenation.com/venue/KovZpZAIF7lA/coney-island-amphitheater-events"
    },
    {
        "name": "Constellation Room",
        "zipcode": "92805",
        "id": "KovZ917AGff",
        "url": "https://www.livenation.com/venue/KovZ917AGff/constellation-room-events"
    },
    {
        "name": "Darien Lake Amphitheater",
        "zipcode": "14040",
        "id": "KovZpaF0ne",
        "url": "https://www.livenation.com/venue/KovZpaF0ne/darien-lake-amphitheater-events"
    },
    {
        "name": "Dome at Toyota Oakdale Theatre",
        "zipcode": "06405",
        "id": "KovZpZAE6eFA",
        "url": "https://www.livenation.com/venue/KovZpZAE6eFA/dome-at-toyota-oakdale-theatre-events"
    },
    {
        "name": "Dos Equis Pavilion",
        "zipcode": "75210",
        "id": "KovZpZAEAFeA",
        "url": "https://www.livenation.com/venue/KovZpZAEAFeA/dos-equis-pavilion-events"
    },
    {
        "name": "Echoplex",
        "zipcode": "90026",
        "id": "KovZpa6OCe",
        "url": "https://www.livenation.com/venue/KovZpa6OCe/echoplex-events"
    },
    {
        "name": "Emo's Austin",
        "zipcode": "78702",
        "id": "KovZpZAEAEeA",
        "url": "https://www.livenation.com/venue/KovZpZAEAEeA/emo-s-austin-events"
    },
    {
        "name": "Fillmore Auditorium Denver",
        "zipcode": "80206",
        "id": "KovZpZAE6eJA",
        "url": "https://www.livenation.com/venue/KovZpZAE6eJA/fillmore-auditorium-denver-events"
    },
    {
        "name": "Fillmore Minneapolis",
        "zipcode": "55403",
        "id": "KovZ917AxCO",
        "url": "https://www.livenation.com/venue/KovZ917AxCO/fillmore-minneapolis-events"
    },
    {
        "name": "Fillmore New Orleans",
        "zipcode": "70130",
        "id": "KovZ917ALJx",
        "url": "https://www.livenation.com/venue/KovZ917ALJx/fillmore-new-orleans-events"
    },
    {
        "name": "FivePoint Amphitheatre",
        "zipcode": "92618",
        "id": "KovZ917A8gf",
        "url": "https://www.livenation.com/venue/KovZ917A8gf/fivepoint-amphitheatre-events"
    },
    {
        "name": "Fox Performing Arts Center",
        "zipcode": "92501",
        "id": "KovZpZAEA6lA",
        "url": "https://www.livenation.com/venue/KovZpZAEA6lA/fox-performing-arts-center-events"
    },
    {
        "name": "FPL Solar Amphitheater at Bayfront Park",
        "zipcode": "33132",
        "id": "KovZpZAEAFAA",
        "url": "https://www.livenation.com/venue/KovZpZAEAFAA/fpl-solar-amphitheater-at-bayfront-park-events"
    },
    {
        "name": "Freedom Mortgage Pavilion",
        "zipcode": "19125",
        "id": "KovZpZAEAIEA",
        "url": "https://www.livenation.com/venue/KovZpZAEAIEA/freedom-mortgage-pavilion-events"
    },
    {
        "name": "GLC Live at 20 Monroe",
        "zipcode": "49503",
        "id": "KovZ917AGpf",
        "url": "https://www.livenation.com/venue/KovZ917AGpf/glc-live-at-20-monroe-events"
    },
    {
        "name": "Glen Helen Amphitheater",
        "zipcode": "92407",
        "id": "KovZpZAEA6eA",
        "url": "https://www.livenation.com/venue/KovZpZAEA6eA/glen-helen-amphitheater-events"
    },
    {
        "name": "Gorge Amphitheatre",
        "zipcode": "98831",
        "id": "KovZpZAEkk1A",
        "url": "https://www.livenation.com/venue/KovZpZAEkk1A/gorge-amphitheatre-events"
    },
    {
        "name": "Gramercy Theatre",
        "zipcode": "10010",
        "id": "KovZpZAEAdaA",
        "url": "https://www.livenation.com/venue/KovZpZAEAdaA/gramercy-theatre-events"
    },
    {
        "name": "Greenfield Lake Amphitheater",
        "zipcode": "28401",
        "id": "KovZ917A2qV",
        "url": "https://www.livenation.com/venue/KovZ917A2qV/greenfield-lake-amphitheater-events"
    },
    {
        "name": "Hayden Homes Amphitheater",
        "zipcode": "83702",
        "id": "KovZpZA1vlIA",
        "url": "https://www.livenation.com/venue/KovZpZA1vlIA/hayden-homes-amphitheater-events"
    },
    {
        "name": "History",
        "zipcode": "92101",
        "id": "KovZ917AJ4f",
        "url": "https://www.livenation.com/venue/KovZ917AJ4f/history-events"
    },
    {
        "name": "Hollywood Casino Amphitheatre Chicago, IL",
        "zipcode": "60477",
        "id": "KovZpZAEktFA",
        "url": "https://www.livenation.com/venue/KovZpZAEktFA/hollywood-casino-amphitheatre-chicago-il-events"
    },
    {
        "name": "Hollywood Casino Amphitheatre St. Louis, MO",
        "zipcode": "63043",
        "id": "KovZpZAEAnaA",
        "url": "https://www.livenation.com/venue/KovZpZAEAnaA/hollywood-casino-amphitheatre-st-louis-mo-events"
    },
    {
        "name": "Hollywood Palladium",
        "zipcode": "90028",
        "id": "KovZpZAEAlaA",
        "url": "https://www.livenation.com/venue/KovZpZAEAlaA/hollywood-palladium-events"
    },
    {
        "name": "House of Blues Anaheim",
        "zipcode": "92802",
        "id": "KovZpZAEA67A",
        "url": "https://www.livenation.com/venue/KovZpZAEA67A/house-of-blues-anaheim-events"
    },
    {
        "name": "House of Blues Chicago",
        "zipcode": "60610",
        "id": "KovZpZAEAIlA",
        "url": "https://www.livenation.com/venue/KovZpZAEAIlA/house-of-blues-chicago-events"
    },
    {
        "name": "House of Blues Cleveland",
        "zipcode": "44114",
        "id": "KovZpZAEAA1A",
        "url": "https://www.livenation.com/venue/KovZpZAEAA1A/house-of-blues-cleveland-events"
    },
    {
        "name": "House of Blues Dallas",
        "zipcode": "75202",
        "id": "KovZpZAEAF7A",
        "url": "https://www.livenation.com/venue/KovZpZAEAF7A/house-of-blues-dallas-events"
    },
    {
        "name": "House of Blues Houston",
        "zipcode": "77010",
        "id": "KovZpZAE6k1A",
        "url": "https://www.livenation.com/venue/KovZpZAE6k1A/house-of-blues-houston-events"
    },
    {
        "name": "House of Blues Las Vegas",
        "zipcode": "89119",
        "id": "KovZpZA7klAA",
        "url": "https://www.livenation.com/venue/KovZpZA7klAA/house-of-blues-las-vegas-events"
    },
    {
        "name": "House of Blues Myrtle Beach",
        "zipcode": "29577",
        "id": "KovZpZAEkeIA",
        "url": "https://www.livenation.com/venue/KovZpZAEkeIA/house-of-blues-myrtle-beach-events"
    },
    {
        "name": "House of Blues New Orleans",
        "zipcode": "70130",
        "id": "KovZpZAE6vtA",
        "url": "https://www.livenation.com/venue/KovZpZAE6vtA/house-of-blues-new-orleans-events"
    },
    {
        "name": "House of Blues Orlando",
        "zipcode": "32830",
        "id": "KovZpaFIme",
        "url": "https://www.livenation.com/venue/KovZpaFIme/house-of-blues-orlando-events"
    },
    {
        "name": "House of Blues San Diego",
        "zipcode": "92101",
        "id": "KovZpZAEAltA",
        "url": "https://www.livenation.com/venue/KovZpZAEAltA/house-of-blues-san-diego-events"
    },
    {
        "name": "Huntington Bank Pavilion at Northerly Island",
        "zipcode": "60605",
        "id": "KovZpZAEA7IA",
        "url": "https://www.livenation.com/venue/KovZpZAEA7IA/huntington-bank-pavilion-at-northerly-island-events"
    },
    {
        "name": "Irving Plaza",
        "zipcode": "10003",
        "id": "KovZpaFPje",
        "url": "https://www.livenation.com/venue/KovZpaFPje/irving-plaza-events"
    },
    {
        "name": "Isleta Amphitheater",
        "zipcode": "87105",
        "id": "KovZpZAE6D0A",
        "url": "https://www.livenation.com/venue/KovZpZAE6D0A/isleta-amphitheater-events"
    },
    {
        "name": "Jiffy Lube Live",
        "zipcode": "20155",
        "id": "KovZpZAE6DA1",
        "url": "https://www.livenation.com/venue/KovZpZAE6DA1/jiffy-lube-live-events"
    },
    {
        "name": "Knitting Factory Concert House",
        "zipcode": "83702",
        "id": "KovZpZAFn6d",
        "url": "https://www.livenation.com/venue/KovZpZAFn6d/knitting-factory-concert-house-events"
    },
    {
        "name": "Lake Tahoe Outdoor Arena at Harveys",
        "zipcode": "89449",
        "id": "KovZpZAEAtGA",
        "url": "https://www.livenation.com/venue/KovZpZAEAtGA/lake-tahoe-outdoor-arena-at-harveys-events"
    },
    {
        "name": "Levitt Pavilion Denver",
        "zipcode": "80202",
        "id": "KovZpZAE6GIA",
        "url": "https://www.livenation.com/venue/KovZpZAE6GIA/levitt-pavilion-denver-events"
    },
    {
        "name": "Majestic Theatre Dallas",
        "zipcode": "75201",
        "id": "KovZpZAFEtJ",
        "url": "https://www.livenation.com/venue/KovZpZAFEtJ/majestic-theatre-dallas-events"
    },
    {
        "name": "Marymoor Park",
        "zipcode": "98052",
        "id": "KovZpZAEdIjA",
        "url": "https://www.livenation.com/venue/KovZpZAEdIjA/marymoor-park-events"
    },
    {
        "name": "Mattress Firm Amphitheatre",
        "zipcode": "91911",
        "id": "KovZpZAEkk6A",
        "url": "https://www.livenation.com/venue/KovZpZAEkk6A/mattress-firm-amphitheatre-events"
    },
    {
        "name": "McMenamins Crystal Ballroom",
        "zipcode": "97209",
        "id": "KovZpZA1Ae0",
        "url": "https://www.livenation.com/venue/KovZpZA1Ae0/mcmenamins-crystal-ballroom-events"
    },
    {
        "name": "Merriweather Post Pavilion",
        "zipcode": "21044",
        "id": "KovZpZA6FAd",
        "url": "https://www.livenation.com/venue/KovZpZA6FAd/merriweather-post-pavilion-events"
    },
    {
        "name": "Metro Chicago",
        "zipcode": "60614",
        "id": "KovZpZAEFtlA",
        "url": "https://www.livenation.com/venue/KovZpZAEFtlA/metro-chicago-events"
    },
    {
        "name": "MidFlorida Credit Union Amphitheatre",
        "zipcode": "33610",
        "id": "KovZpZAE6AAA",
        "url": "https://www.livenation.com/venue/KovZpZAE6AAA/midflorida-credit-union-amphitheatre-events"
    },
    {
        "name": "Mohegan Sun Arena",
        "zipcode": "06382",
        "id": "KovZpZAE6iVA",
        "url": "https://www.livenation.com/venue/KovZpZAE6iVA/mohegan-sun-arena-events"
    },
    {
        "name": "Moroccan Lounge",
        "zipcode": "90012",
        "id": "KovZpZAEATZA",
        "url": "https://www.livenation.com/venue/KovZpZAEATZA/moroccan-lounge-events"
    },
    {
        "name": "North Island Credit Union Amphitheatre",
        "zipcode": "91911",
        "id": "KovZpZAE6DAA",
        "url": "https://www.livenation.com/venue/KovZpZAE6DAA/north-island-credit-union-amphitheatre-events"
    },
    {
        "name": "Northwell Health at Jones Beach Theater",
        "zipcode": "11793",
        "id": "KovZpZAE6-A7",
        "url": "https://www.livenation.com/venue/KovZpZAE6-A7/northwell-health-at-jones-beach-theater-events"
    },
    {
        "name": "Oakdale Theatre",
        "zipcode": "06405",
        "id": "KovZpZAE6eJA",
        "url": "https://www.livenation.com/venue/KovZpZAE6eJA/oakdale-theatre-events"
    },
    {
        "name": "Ohana Festival",
        "zipcode": "92629",
        "id": "KovZpZAEke1A",
        "url": "https://www.livenation.com/venue/KovZpZAEke1A/ohana-festival-events"
    },
    {
        "name": "Patriot Place",
        "zipcode": "02035",
        "id": "KovZpZAEkAIA",
        "url": "https://www.livenation.com/venue/KovZpZAEkAIA/patriot-place-events"
    },
    {
        "name": "Pearl Concert Theater at Palms Casino Resort",
        "zipcode": "89103",
        "id": "KovZpZAEEdlA",
        "url": "https://www.livenation.com/venue/KovZpZAEEdlA/pearl-concert-theater-at-palms-casino-resort-events"
    },
    {
        "name": "PNC Bank Arts Center",
        "zipcode": "07728",
        "id": "KovZpZAEAAqA",
        "url": "https://www.livenation.com/venue/KovZpZAEAAqA/pnc-bank-arts-center-events"
    },
    {
        "name": "PNC Music Pavilion",
        "zipcode": "28262",
        "id": "KovZpZAE6DAF",
        "url": "https://www.livenation.com/venue/KovZpZAE6DAF/pnc-music-pavilion-events"
    },
    {
        "name": "PNC Pavilion",
        "zipcode": "45230",
        "id": "KovZpZAEkAI",
        "url": "https://www.livenation.com/venue/KovZpZAEkAI/pnc-pavilion-events"
    },
    {
        "name": "Pop's",
        "zipcode": "62201",
        "id": "KovZpZAE6A-A",
        "url": "https://www.livenation.com/venue/KovZpZAE6A-A/pop-s-events"
    },
    {
        "name": "Preston Bradley Hall",
        "zipcode": "60604",
        "id": "KovZpZAEk6eA",
        "url": "https://www.livenation.com/venue/KovZpZAEk6eA/preston-bradley-hall-events"
    },
    {
        "name": "Providence Medical Center Amphitheater",
        "zipcode": "66111",
        "id": "KovZpZAEeKdA",
        "url": "https://www.livenation.com/venue/KovZpZAEeKdA/providence-medical-center-amphitheater-events"
    },
    {
        "name": "Red Hat Amphitheater",
        "zipcode": "27601",
        "id": "KovZpZAEkkQA",
        "url": "https://www.livenation.com/venue/KovZpZAEkkQA/red-hat-amphitheater-events"
    },
    {
        "name": "Red Rocks Amphitheatre",
        "zipcode": "80465",
        "id": "KovZpZAEdJ7A",
        "url": "https://www.livenation.com/venue/KovZpZAEdJ7A/red-rocks-amphitheatre-events"
    },
    {
        "name": "Revention Music Center",
        "zipcode": "77002",
        "id": "KovZpZAEkIJA",
        "url": "https://www.livenation.com/venue/KovZpZAEkIJA/revention-music-center-events"
    },
    {
        "name": "Rock City",
        "zipcode": "37409",
        "id": "KovZpZA6kI7",
        "url": "https://www.livenation.com/venue/KovZpZA6kI7/rock-city-events"
    },
    {
        "name": "Rockland Trust Bank Pavilion",
        "zipcode": "02210",
        "id": "KovZpZAEkttA",
        "url": "https://www.livenation.com/venue/KovZpZAEkttA/rockland-trust-bank-pavilion-events"
    },
    {
        "name": "Rooftop at Pier 17",
        "zipcode": "10038",
        "id": "KovZpZAEdLF",
        "url": "https://www.livenation.com/venue/KovZpZAEdLF/rooftop-at-pier-17-events"
    },
    {
        "name": "Rose Music Center at The Heights",
        "zipcode": "45439",
        "id": "KovZpZAEkFtA",
        "url": "https://www.livenation.com/venue/KovZpZAEkFtA/rose-music-center-at-the-heights-events"
    },
    {
        "name": "Ryman Auditorium",
        "zipcode": "37219",
        "id": "KovZpZAEkdFA",
        "url": "https://www.livenation.com/venue/KovZpZAEkdFA/ryman-auditorium-events"
    },
    {
        "name": "Saint Andrew's Hall",
        "zipcode": "48226",
        "id": "KovZpZAEAJA",
        "url": "https://www.livenation.com/venue/KovZpZAEAJA/saint-andrew-s-hall-events"
    },
    {
        "name": "Saint Louis Music Park",
        "zipcode": "63011",
        "id": "KovZpZAEktQA",
        "url": "https://www.livenation.com/venue/KovZpZAEktQA/saint-louis-music-park-events"
    },
    {
        "name": "Saratoga Performing Arts Center",
        "zipcode": "12866",
        "id": "KovZpZAEkA0A",
        "url": "https://www.livenation.com/venue/KovZpZAEkA0A/saratoga-performing-arts-center-events"
    },
    {
        "name": "Shoreline Amphitheatre",
        "zipcode": "94043",
        "id": "KovZpZAEvE7A",
        "url": "https://www.livenation.com/venue/KovZpZAEvE7A/shoreline-amphitheatre-events"
    },
    {
        "name": "Showbox SoDo",
        "zipcode": "98134",
        "id": "KovZpZAEdlaA",
        "url": "https://www.livenation.com/venue/KovZpZAEdlaA/showbox-sodo-events"
    },
    {
        "name": "Shubert Theatre",
        "zipcode": "02116",
        "id": "KovZpZAE6tfA",
        "url": "https://www.livenation.com/venue/KovZpZAE6tfA/shubert-theatre-events"
    },
    {
        "name": "Smart Financial Centre at Sugar Land",
        "zipcode": "77479",
        "id": "KovZpZAEkIF",
        "url": "https://www.livenation.com/venue/KovZpZAEkIF/smart-financial-centre-at-sugar-land-events"
    },
    {
        "name": "SoFi Stadium",
        "zipcode": "90301",
        "id": "KovZpZAEAjnA",
        "url": "https://www.livenation.com/venue/KovZpZAEAjnA/sofi-stadium-events"
    },
    {
        "name": "South Side Ballroom",
        "zipcode": "75215",
        "id": "KovZpZAE66vA",
        "url": "https://www.livenation.com/venue/KovZpZAE66vA/south-side-ballroom-events"
    },
    {
        "name": "St. Joseph's Health Amphitheater at Lakeview",
        "zipcode": "13209",
        "id": "KovZpZAEv2vA",
        "url": "https://www.livenation.com/venue/KovZpZAEv2vA/st-joseph-s-health-amphitheater-at-lakeview-events"
    },
    {
        "name": "Starland Ballroom",
        "zipcode": "08873",
        "id": "KovZpZAEkk4A",
        "url": "https://www.livenation.com/venue/KovZpZAEkk4A/starland-ballroom-events"
    },
    {
        "name": "Stifel Theatre",
        "zipcode": "63103",
        "id": "KovZpZAE6A-A",
        "url": "https://www.livenation.com/venue/KovZpZAE6A-A/stifel-theatre-events"
    },
    {
        "name": "Stone Pony Summer Stage",
        "zipcode": "07740",
        "id": "KovZpZAEEd7A",
        "url": "https://www.livenation.com/venue/KovZpZAEEd7A/stone-pony-summer-stage-events"
    },
    {
        "name": "Sunlight Supply Amphitheater",
        "zipcode": "98604",
        "id": "KovZpZAEknEA",
        "url": "https://www.livenation.com/venue/KovZpZAEknEA/sunlight-supply-amphitheater-events"
    },
    {
        "name": "TCU Amphitheater at White River State Park",
        "zipcode": "46204",
        "id": "KovZpZAEeGA7",
        "url": "https://www.livenation.com/venue/KovZpZAEeGA7/tcu-amphitheater-at-white-river-state-park-events"
    },
    {
        "name": "Terminal 5",
        "zipcode": "10019",
        "id": "KovZpZAEAl7A",
        "url": "https://www.livenation.com/venue/KovZpZAEAl7A/terminal-5-events"
    },
    {
        "name": "The Anthem",
        "zipcode": "20024",
        "id": "KovZpZAEk1tA",
        "url": "https://www.livenation.com/venue/KovZpZAEk1tA/the-anthem-events"
    },
    {
        "name": "The Aztec Theatre",
        "zipcode": "78205",
        "id": "KovZpZAEkl6A",
        "url": "https://www.livenation.com/venue/KovZpZAEkl6A/the-aztec-theatre-events"
    },
    {
        "name": "The Chicago Theatre",
        "zipcode": "60601",
        "id": "KovZpZAE6C7A",
        "url": "https://www.livenation.com/venue/KovZpZAE6C7A/the-chicago-theatre-events"
    },
    {
        "name": "The Depot",
        "zipcode": "84101",
        "id": "KovZpZAEktlA",
        "url": "https://www.livenation.com/venue/KovZpZAEktlA/the-depot-events"
    },
    {
        "name": "The District",
        "zipcode": "57104",
        "id": "KovZpZAEkdJA",
        "url": "https://www.livenation.com/venue/KovZpZAEkdJA/the-district-events"
    },
    {
        "name": "The Echo",
        "zipcode": "90026",
        "id": "KovZpZAEF6A",
        "url": "https://www.livenation.com/venue/KovZpZAEF6A/the-echo-events"
    },
    {
        "name": "The Egyptian Room at Old National Centre",
        "zipcode": "46204",
        "id": "KovZpZAE6FtA",
        "url": "https://www.livenation.com/venue/KovZpZAE6FtA/the-egyptian-room-at-old-national-centre-events"
    },
    {
        "name": "The El Rey Theater",
        "zipcode": "90036",
        "id": "KovZpZAEAbJA",
        "url": "https://www.livenation.com/venue/KovZpZAEAbJA/the-el-rey-theater-events"
    },
    {
        "name": "The Fillmore Auditorium",
        "zipcode": "80206",
        "id": "KovZpZAE6eJA",
        "url": "https://www.livenation.com/venue/KovZpZAE6eJA/the-fillmore-auditorium-events"
    },
    {
        "name": "The Fillmore Charlotte",
        "zipcode": "28206",
        "id": "KovZpZAE6eMA",
        "url": "https://www.livenation.com/venue/KovZpZAE6eMA/the-fillmore-charlotte-events"
    },
    {
        "name": "The Fillmore Detroit",
        "zipcode": "48201",
        "id": "KovZpZAE6eDA",
        "url": "https://www.livenation.com/venue/KovZpZAE6eDA/the-fillmore-detroit-events"
    },
    {
        "name": "The Fillmore Miami Beach at Jackie Gleason Theater",
        "zipcode": "33139",
        "id": "KovZpZAE6eZA",
        "url": "https://www.livenation.com/venue/KovZpZAE6eZA/the-fillmore-miami-beach-at-jackie-gleason-theater-events"
    },
    {
        "name": "The Fillmore New York at Irving Plaza",
        "zipcode": "10003",
        "id": "KovZpZAE6eGA",
        "url": "https://www.livenation.com/venue/KovZpZAE6eGA/the-fillmore-new-york-at-irving-plaza-events"
    },
    {
        "name": "The Fillmore Philadelphia",
        "zipcode": "19123",
        "id": "KovZpZAE6eOA",
        "url": "https://www.livenation.com/venue/KovZpZAE6eOA/the-fillmore-philadelphia-events"
    },
    {
        "name": "The Fillmore Silver Spring",
        "zipcode": "20910",
        "id": "KovZpZAEJtaA",
        "url": "https://www.livenation.com/venue/KovZpZA6tFlA/the-fillmore-silver-spring-events"
    },
    {
        "name": "The Gorge Amphitheatre",
        "zipcode": "98848",
        "id": "KovZpZAE6JlA",
        "url": "https://www.livenation.com/venue/KovZpZAE6JlA/the-gorge-amphitheatre-events"
    },
    {
        "name": "The Joint at Hard Rock Hotel Las Vegas",
        "zipcode": "89109",
        "id": "KovZpZAEkAdA",
        "url": "https://www.livenation.com/venue/KovZpZAEkAdA/the-joint-at-hard-rock-hotel-las-vegas-events"
    },
    {
        "name": "The Met Philadelphia",
        "zipcode": "19107",
        "id": "KovZpZAE67lA",
        "url": "https://www.livenation.com/venue/KovZpZAE67lA/the-met-philadelphia-events"
    },
    {
        "name": "The Observatory North Park",
        "zipcode": "92104",
        "id": "KovZpZAEkFJA",
        "url": "https://www.livenation.com/venue/KovZpZAEkFJA/the-observatory-north-park-events"
    },
    {
        "name": "The Pageant",
        "zipcode": "63112",
        "id": "KovZpZAE66vA",
        "url": "https://www.livenation.com/venue/KovZpZAE66vA/the-pageant-events"
    },
    {
        "name": "The Pavilion at Toyota Music Factory",
        "zipcode": "75039",
        "id": "KovZpZAE6AvA",
        "url": "https://www.livenation.com/venue/KovZpZAE6AvA/the-pavilion-at-toyota-music-factory-events"
    },
    {
        "name": "The Rave / Eagles Club",
        "zipcode": "53233",
        "id": "KovZpZAEAj9A",
        "url": "https://www.livenation.com/venue/KovZpZAEAj9A/the-rave-eagles-club-events"
    },
    {
        "name": "The Regency Ballroom",
        "zipcode": "94109",
        "id": "KovZpZAE67aA",
        "url": "https://www.livenation.com/venue/KovZpZAE67aA/the-regency-ballroom-events"
    },
    {
        "name": "The Rooftop at Pier 17",
        "zipcode": "10038",
        "id": "KovZpZAEAlF7A",
        "url": "https://www.livenation.com/venue/KovZpZAEAlF7A/the-rooftop-at-pier-17-events"
    },
    {
        "name": "The Rose Music Center at The Heights",
        "zipcode": "45439",
        "id": "KovZpZAEkFtA",
        "url": "https://www.livenation.com/venue/KovZpZAEkFtA/the-rose-music-center-at-the-heights-events"
    },
    {
        "name": "The Sinclair",
        "zipcode": "02138",
        "id": "KovZpZAEJ1dA",
        "url": "https://www.livenation.com/venue/KovZpZAEJ1dA/the-sinclair-events"
    },
    {
        "name": "The Tabernacle",
        "zipcode": "30303",
        "id": "KovZpZAE67tA",
        "url": "https://www.livenation.com/venue/KovZpZAE67tA/the-tabernacle-events"
    },
    {
        "name": "The Warfield",
        "zipcode": "94102",
        "id": "KovZpZAEFk7A",
        "url": "https://www.livenation.com/venue/KovZpZAEFk7A/the-warfield-events"
    },
    {
        "name": "The Wiltern",
        "zipcode": "90010",
        "id": "KovZpZAEk6EA",
        "url": "https://www.livenation.com/venue/KovZpZAEk6EA/the-wiltern-events"
    },
    {
        "name": "Toyota Amphitheatre",
        "zipcode": "95630",
        "id": "KovZpZAE6a1A",
        "url": "https://www.livenation.com/venue/KovZpZAE6a1A/toyota-amphitheatre-events"
    },
    {
        "name": "Toyota Music Factory",
        "zipcode": "75039",
        "id": "KovZpZAE6DA2",
        "url": "https://www.livenation.com/venue/KovZpZAE6DA2/toyota-music-factory-events"
    },
    {
        "name": "Uptown Amphitheatre at NC Music Factory",
        "zipcode": "28206",
        "id": "KovZpZAEkEJA",
        "url": "https://www.livenation.com/venue/KovZpZAEkEJA/uptown-amphitheatre-at-nc-music-factory-events"
    },
    {
        "name": "Uptown Theater",
        "zipcode": "66101",
        "id": "KovZpZAE4EaA",
        "url": "https://www.livenation.com/venue/KovZpZAE4EaA/uptown-theater-events"
    },
    {
        "name": "USANA Amphitheatre",
        "zipcode": "84047",
        "id": "KovZpZAE6Av7A",
        "url": "https://www.livenation.com/venue/KovZpZAE6Av7A/usana-amphitheatre-events"
    },
    {
        "name": "Vina Robles Amphitheatre",
        "zipcode": "93446",
        "id": "KovZpZAE6ApA",
        "url": "https://www.livenation.com/venue/KovZpZAE6ApA/vina-robles-amphitheatre-events"
    },
    {
        "name": "White Oak Music Hall",
        "zipcode": "77009",
        "id": "KovZpZAEn1AA",
        "url": "https://www.livenation.com/venue/KovZpZAEn1AA/white-oak-music-hall-events"
    },
    {
        "name": "Whitewater Amphitheater",
        "zipcode": "78132",
        "id": "KovZpZAE6AOA",
        "url": "https://www.livenation.com/venue/KovZpZAE6AOA/whitewater-amphitheater-events"
    },
    {
        "name": "Xfinity Center",
        "zipcode": "02766",
        "id": "KovZpZAE67dA",
        "url": "https://www.livenation.com/venue/KovZpZAE67dA/xfinity-center-events"
    },
    {
        "name": "Xfinity Theatre",
        "zipcode": "06120",
        "id": "KovZpZAEAAZA",
        "url": "https://www.livenation.com/venue/KovZpZAEAAZA/xfinity-theatre-events"
    },
    {
        "name": "XL Live",
        "zipcode": "17101",
        "id": "KovZpZAEdlI",
        "url": "https://www.livenation.com/venue/KovZpZAEdlI/xl-live-events"
    },
    {
        "name": "Zydeco",
        "zipcode": "35209",
        "id": "KovZpZAEF5DA",
        "url": "https://www.livenation.com/venue/KovZpZAEF5DA/zydeco-events"
    }
]
